{
  "type": "FeatureCollection",
  "features": [
    {
      "type": "Feature",
      "properties": {
        "norad_id": 66647,
        "name": "COSMOS 2597 (RODNIK-S 22)",
        "group": "last-30-days",
        "lat": -25.86600247096332,
        "lon": 112.04900234477961,
        "alt_km": 1503.8413495854375,
        "timestamp": "2025-12-09T14:52:24.942980+00:00",
        "meta_object_name": "COSMOS 2597 (RODNIK-S 22)",
        "meta_object_id": "2025-273A",
        "meta_epoch": "2025-12-09T07:58:00.268320",
        "meta_mean_motion": 12.41951239,
        "meta_eccentricity": 0.00079631,
        "meta_inclination": 82.4984,
        "meta_ra_of_asc_node": 288.5652,
        "meta_arg_of_pericenter": 297.2947,
        "meta_mean_anomaly": 62.7321,
        "meta_ephemeris_type": 0,
        "meta_classification_type": "U",
        "meta_norad_cat_id": 66647,
        "meta_element_set_no": 999,
        "meta_rev_at_epoch": 171,
        "meta_bstar": 0.00025167455,
        "meta_mean_motion_dot": 4.4e-07,
        "meta_mean_motion_ddot": 0,
        "tle_line1": "1 66647U 25273A   25343.33194755  .00000044  00000+0  25167-3 0  9993",
        "tle_line2": "2 66647  82.4984 288.5652 0007963 297.2947  62.7321 12.41951239  1714"
      },
      "geometry": {
        "type": "Point",
        "coordinates": [
          112.04900234477961,
          -25.86600247096332
        ]
      }
    },
    {
      "type": "Feature",
      "properties": {
        "norad_id": 66648,
        "name": "COSMOS 2598 (RODNIK-S 23)",
        "group": "last-30-days",
        "lat": -48.60519781465905,
        "lon": 116.98167823179709,
        "alt_km": 1496.2706154447696,
        "timestamp": "2025-12-09T14:52:24.942990+00:00",
        "meta_object_name": "COSMOS 2598 (RODNIK-S 23)",
        "meta_object_id": "2025-273B",
        "meta_epoch": "2025-12-09T07:50:53.357280",
        "meta_mean_motion": 12.4286156,
        "meta_eccentricity": 0.00072646,
        "meta_inclination": 82.5025,
        "meta_ra_of_asc_node": 288.5722,
        "meta_arg_of_pericenter": 259.4711,
        "meta_mean_anomaly": 100.555,
        "meta_ephemeris_type": 0,
        "meta_classification_type": "U",
        "meta_norad_cat_id": 66648,
        "meta_element_set_no": 999,
        "meta_rev_at_epoch": 171,
        "meta_bstar": -7.2490147e-05,
        "meta_mean_motion_dot": 0,
        "meta_mean_motion_ddot": 0,
        "tle_line1": "1 66648U 25273B   25343.32700645  .00000000  00000+0 -72490-4 0  9999",
        "tle_line2": "2 66648  82.5025 288.5722 0007264 259.4711 100.5550 12.42861560  1716"
      },
      "geometry": {
        "type": "Point",
        "coordinates": [
          116.98167823179709,
          -48.60519781465905
        ]
      }
    },
    {
      "type": "Feature",
      "properties": {
        "norad_id": 66649,
        "name": "COSMOS 2599 (RODNIK-S 24)",
        "group": "last-30-days",
        "lat": -11.981865694791644,
        "lon": 110.00317283965765,
        "alt_km": 1506.3941304438713,
        "timestamp": "2025-12-09T14:52:24.943002+00:00",
        "meta_object_name": "COSMOS 2599 (RODNIK-S 24)",
        "meta_object_id": "2025-273C",
        "meta_epoch": "2025-12-09T06:06:24.429024",
        "meta_mean_motion": 12.41671807,
        "meta_eccentricity": 0.00081776,
        "meta_inclination": 82.5024,
        "meta_ra_of_asc_node": 288.6283,
        "meta_arg_of_pericenter": 307.9769,
        "meta_mean_anomaly": 52.0571,
        "meta_ephemeris_type": 0,
        "meta_classification_type": "U",
        "meta_norad_cat_id": 66649,
        "meta_element_set_no": 999,
        "meta_rev_at_epoch": 170,
        "meta_bstar": 0.00015946238,
        "meta_mean_motion_dot": 3.2e-07,
        "meta_mean_motion_ddot": 0,
        "tle_line1": "1 66649U 25273C   25343.25444941  .00000032  00000+0  15946-3 0  9992",
        "tle_line2": "2 66649  82.5024 288.6283 0008177 307.9769  52.0571 12.41671807  1700"
      },
      "geometry": {
        "type": "Point",
        "coordinates": [
          110.00317283965765,
          -11.981865694791644
        ]
      }
    },
    {
      "type": "Feature",
      "properties": {
        "norad_id": 66650,
        "name": "BEE-1000",
        "group": "last-30-days",
        "lat": 70.52364255158388,
        "lon": 113.4779720316262,
        "alt_km": 592.6364270141203,
        "timestamp": "2025-12-09T14:52:24.943015+00:00",
        "meta_object_name": "BEE-1000",
        "meta_object_id": "2025-274A",
        "meta_epoch": "2025-12-09T06:20:27.921120",
        "meta_mean_motion": 14.91642041,
        "meta_eccentricity": 0.00104404,
        "meta_inclination": 97.7386,
        "meta_ra_of_asc_node": 270.5157,
        "meta_arg_of_pericenter": 264.9451,
        "meta_mean_anomaly": 95.0576,
        "meta_ephemeris_type": 0,
        "meta_classification_type": "U",
        "meta_norad_cat_id": 66650,
        "meta_element_set_no": 999,
        "meta_rev_at_epoch": 188,
        "meta_bstar": 0.00027960748,
        "meta_mean_motion_dot": 2.756e-05,
        "meta_mean_motion_ddot": 0,
        "tle_line1": "1 66650U 25274A   25343.26421205  .00002756  00000+0  27961-3 0  9999",
        "tle_line2": "2 66650  97.7386 270.5157 0010440 264.9451  95.0576 14.91642041  1883"
      },
      "geometry": {
        "type": "Point",
        "coordinates": [
          113.4779720316262,
          70.52364255158388
        ]
      }
    },
    {
      "type": "Feature",
      "properties": {
        "norad_id": 66651,
        "name": "2025-274B",
        "group": "last-30-days",
        "lat": 67.23225934017849,
        "lon": 109.76928881818247,
        "alt_km": 592.4998402617812,
        "timestamp": "2025-12-09T14:52:24.943025+00:00",
        "meta_object_name": "2025-274B",
        "meta_object_id": "2025-274B",
        "meta_epoch": "2025-12-09T06:19:32.979360",
        "meta_mean_motion": 14.91754249,
        "meta_eccentricity": 0.00107478,
        "meta_inclination": 97.7381,
        "meta_ra_of_asc_node": 270.5158,
        "meta_arg_of_pericenter": 264.1408,
        "meta_mean_anomaly": 95.8586,
        "meta_ephemeris_type": 0,
        "meta_classification_type": "U",
        "meta_norad_cat_id": 66651,
        "meta_element_set_no": 999,
        "meta_rev_at_epoch": 188,
        "meta_bstar": 0.00056129482,
        "meta_mean_motion_dot": 5.606e-05,
        "meta_mean_motion_ddot": 0,
        "tle_line1": "1 66651U 25274B   25343.26357615  .00005606  00000+0  56129-3 0  9998",
        "tle_line2": "2 66651  97.7381 270.5158 0010747 264.1408  95.8586 14.91754249  1887"
      },
      "geometry": {
        "type": "Point",
        "coordinates": [
          109.76928881818247,
          67.23225934017849
        ]
      }
    },
    {
      "type": "Feature",
      "properties": {
        "norad_id": 66652,
        "name": "2025-274C",
        "group": "last-30-days",
        "lat": 61.03181736614042,
        "lon": 105.08924263101402,
        "alt_km": 592.5743643311089,
        "timestamp": "2025-12-09T14:52:24.943035+00:00",
        "meta_object_name": "2025-274C",
        "meta_object_id": "2025-274C",
        "meta_epoch": "2025-12-09T06:17:50.661024",
        "meta_mean_motion": 14.91872383,
        "meta_eccentricity": 0.00104134,
        "meta_inclination": 97.7388,
        "meta_ra_of_asc_node": 270.5182,
        "meta_arg_of_pericenter": 271.0321,
        "meta_mean_anomaly": 88.9705,
        "meta_ephemeris_type": 0,
        "meta_classification_type": "U",
        "meta_norad_cat_id": 66652,
        "meta_element_set_no": 999,
        "meta_rev_at_epoch": 188,
        "meta_bstar": 0.0003647652,
        "meta_mean_motion_dot": 3.633e-05,
        "meta_mean_motion_ddot": 0,
        "tle_line1": "1 66652U 25274C   25343.26239191  .00003633  00000+0  36477-3 0  9999",
        "tle_line2": "2 66652  97.7388 270.5182 0010413 271.0321  88.9705 14.91872383  1889"
      },
      "geometry": {
        "type": "Point",
        "coordinates": [
          105.08924263101402,
          61.03181736614042
        ]
      }
    },
    {
      "type": "Feature",
      "properties": {
        "norad_id": 66653,
        "name": "2025-274D",
        "group": "last-30-days",
        "lat": 60.74210687745926,
        "lon": 104.91708763365176,
        "alt_km": 592.8234345977935,
        "timestamp": "2025-12-09T14:52:24.943045+00:00",
        "meta_object_name": "2025-274D",
        "meta_object_id": "2025-274D",
        "meta_epoch": "2025-12-09T06:17:45.528000",
        "meta_mean_motion": 14.91876438,
        "meta_eccentricity": 0.00112848,
        "meta_inclination": 97.7386,
        "meta_ra_of_asc_node": 270.518,
        "meta_arg_of_pericenter": 266.9317,
        "meta_mean_anomaly": 93.0611,
        "meta_ephemeris_type": 0,
        "meta_classification_type": "U",
        "meta_norad_cat_id": 66653,
        "meta_element_set_no": 999,
        "meta_rev_at_epoch": 188,
        "meta_bstar": 0.00037130229,
        "meta_mean_motion_dot": 3.701e-05,
        "meta_mean_motion_ddot": 0,
        "tle_line1": "1 66653U 25274D   25343.26233250  .00003701  00000+0  37130-3 0  9993",
        "tle_line2": "2 66653  97.7386 270.5180 0011284 266.9317  93.0611 14.91876438  1889"
      },
      "geometry": {
        "type": "Point",
        "coordinates": [
          104.91708763365176,
          60.74210687745926
        ]
      }
    }
  ]
}